STARLINK-31630          
1 59271U 24050T   26068.56880718 -.00002063  00000+0 -57526-4 0  9991
2 59271  53.1600 168.5079 0001409  92.3163 267.7999 15.30200807110710
STARLINK-35731          
1 66228U 25244Y   26068.70695697  .00020430  00000+0  69964-3 0  9997
2 66228  53.1598 229.7217 0001213  65.7768 294.3359 15.30216386 21668
